<?xml version="1.0" encoding="UTF-8"?>
<osm version="0.6" generator="Overpass API 0.7.62.11 87bfad18">
<note>The data included in this document is from www.openstreetmap.org. The data is made available under ODbL.</note>
<meta osm_base="2026-08-01T10:09:00Z"/>

  <node id="6035236597" lat="-12.1093487" lon="-77.0430970"/>
  <node id="6035236598" lat="-12.1094038" lon="-77.0430889"/>
  <node id="6035236599" lat="-12.1093776" lon="-77.0430031"/>
  <node id="6035236600" lat="-12.1093330" lon="-77.0430165"/>
  <way id="640667569">
    <nd ref="6035236597"/>
    <nd ref="6035236598"/>
    <nd ref="6035236599"/>
    <nd ref="6035236600"/>
    <nd ref="6035236597"/>
  </way>

</osm>
